     2.100          NAVIGATION                              RINEX VERSION / TYPE
fic2rin                                 08/24/2015 00:04:31 PGM / RUN BY / DATE
                                                            END OF HEADER
11 15  8 23  1 59 44.0 -.599600374699D-03 -.238742359215D-11  .000000000000D+00
     .180000000000D+02 -.559375000000D+01  .614489881684D-08 -.122803283021D+01
     .113621354103D-06  .161979746772D-01  .725686550140D-05  .515374892998D+04
     .718400000000D+04 -.577419996262D-07  .237258562707D+01  .361353158951D-06
     .894057771563D+00  .205593750000D+03  .144031338656D+01 -.893644366732D-08
     .355729103259D-09  .100000000000D+01  .185900000000D+04  .000000000000D+00
     .240000000000D+01  .000000000000D+00 -.121071934700D-07  .180000000000D+02
     .600000000000D+01  .400000000000D+01
18 15  8 23  1 59 44.0  .427749473602D-03  .318323145621D-11  .000000000000D+00
     .180000000000D+02 -.131250000000D+02  .550058626435D-08  .303819622676D+01
    -.771135091782D-06  .163657808444D-01  .768341124058D-05  .515362393951D+04
     .718400000000D+04  .199303030968D-06 -.253648820083D+01 -.249594449997D-06
     .925153635791D+00  .209218750000D+03 -.194001374760D+01 -.821069915143D-08
    -.188222125921D-09  .100000000000D+01  .185900000000D+04  .000000000000D+00
     .240000000000D+01  .000000000000D+00 -.111758708954D-07  .180000000000D+02
     .600000000000D+01  .400000000000D+01
31 15  8 23  1 59 44.0  .305477529764D-03 -.125055521494D-11  .000000000000D+00
     .480000000000D+02  .550000000000D+02  .436732477375D-08 -.133690582107D+01
     .285357236862D-05  .806986901443D-02  .550225377083D-05  .515357507324D+04
     .718400000000D+04 -.782310962677D-07 -.385715589163D+00 -.912696123123D-07
     .974438826546D+00  .282906250000D+03 -.523365144168D+00 -.820105589261D-08
     .392873507616D-10  .100000000000D+01  .185900000000D+04  .000000000000D+00
     .240000000000D+01  .000000000000D+00 -.135041773319D-07  .480000000000D+02
     .600000000000D+01  .400000000000D+01
 2 15  8 23  2  0  0.0  .585398171097D-03  .193267624127D-11  .000000000000D+00
     .780000000000D+02 -.934375000000D+01  .528664878157D-08 -.956748745683D-01
    -.420957803726D-06  .147307435982D-01  .711157917976D-05  .515361079216D+04
     .720000000000D+04 -.149011611938D-07  .269009299873D+01  .238418579102D-06
     .941652006031D+00  .238093750000D+03 -.223941007201D+01 -.862071623029D-08
     .305369862738D-09  .100000000000D+01  .185900000000D+04  .000000000000D+00
     .240000000000D+01  .000000000000D+00 -.204890966415D-07  .780000000000D+02
     .600000000000D+01  .400000000000D+01
 4 15  8 23  2  0  0.0 -.128569081426D-04 -.386535248253D-11  .000000000000D+00
     .190000000000D+03 -.825000000000D+01  .525057585042D-08 -.852967334405D+00
    -.139698386192D-06  .117463161005D-01  .717677175999D-05  .515365519333D+04
     .720000000000D+04 -.149011611938D-07  .270525346748D+01  .204890966415D-06
     .940739228536D+00  .233562500000D+03  .108870258275D+01 -.849535386559D-08
     .321441960776D-09  .100000000000D+01  .185900000000D+04  .000000000000D+00
     .240000000000D+01  .000000000000D+00 -.651925802231D-08  .190000000000D+03
     .600000000000D+01  .400000000000D+01
 5 15  8 23  2  0  0.0 -.203588046134D-03  .420641299570D-11  .000000000000D+00
     .470000000000D+02 -.120312500000D+02  .511557022689D-08  .239035774253D+01
    -.564381480217D-06  .431096099783D-02  .831112265587D-05  .515362477875D+04
     .720000000000D+04 -.134110450745D-06 -.252142836622D+01 -.186264514923D-08
     .946553119531D+00  .212718750000D+03  .394366195346D+00 -.817248327387D-08
    -.935753263594D-10  .100000000000D+01  .185900000000D+04  .000000000000D+00
     .240000000000D+01  .000000000000D+00 -.107102096081D-07  .470000000000D+02
     .600000000000D+01  .400000000000D+01
 7 15  8 23  2  0  0.0  .481323804706D-03  .193267624127D-11  .000000000000D+00
     .740000000000D+02  .437812500000D+02  .432053711057D-08 -.127741876628D+01
     .220723450184D-05  .886388483923D-02  .533647835255D-05  .515370153427D+04
     .720000000000D+04  .135973095894D-06 -.393840840983D+00 -.121071934700D-06
     .969565885922D+00  .281781250000D+03 -.271849818649D+01 -.804069206996D-08
    -.610739725475D-10  .100000000000D+01  .185900000000D+04  .000000000000D+00
     .240000000000D+01  .000000000000D+00 -.111758708954D-07  .740000000000D+02
     .600000000000D+01  .400000000000D+01
12 15  8 23  2  0  0.0  .321339815855D-03  .341060513165D-11  .000000000000D+00
     .650000000000D+02 -.440937500000D+02  .374801326265D-08 -.180037898497D+01
    -.219419598579D-05  .552340096328D-02  .631436705589D-05  .515362675285D+04
     .720000000000D+04  .130385160446D-07  .676131349139D+00 -.782310962677D-07
     .990054018512D+00  .273781250000D+03  .648816503480D+00 -.779211028696D-08
    -.140720147273D-09  .100000000000D+01  .185900000000D+04  .000000000000D+00
     .240000000000D+01  .000000000000D+00 -.125728547573D-07  .650000000000D+02
     .600000000000D+01  .400000000000D+01
13 15  8 23  2  0  0.0 -.143216922879D-03 -.306954461848D-11  .000000000000D+00
     .580000000000D+02  .561562500000D+02  .439304013061D-08 -.471246889667D+00
     .302493572235D-05  .475993216969D-02  .843591988087D-05  .515368508911D+04
     .720000000000D+04  .167638063431D-07 -.135426492988D+01 -.167638063431D-07
     .973128825830D+00  .222906250000D+03  .208989726079D+01 -.802533428739D-08
    -.978612191697D-10  .100000000000D+01  .185900000000D+04  .000000000000D+00
     .240000000000D+01  .000000000000D+00 -.111758708954D-07  .580000000000D+02
     .600000000000D+01  .400000000000D+01
14 15  8 23  2  0  0.0  .398932024837D-04 -.261479726760D-11  .000000000000D+00
     .780000000000D+02  .594062500000D+02  .443589905872D-08  .147002325148D+01
     .297091901302D-05  .845757487696D-02  .988692045212D-05  .515364421463D+04
     .720000000000D+04 -.206753611565D-06 -.138947167438D+01 -.856816768646D-07
     .965613327042D+00  .193875000000D+03 -.196216720908D+01 -.801747681723D-08
    -.165721188667D-09  .100000000000D+01  .185900000000D+04  .000000000000D+00
     .340000000000D+01  .000000000000D+00 -.931322574615D-08  .780000000000D+02
     .600000000000D+01  .400000000000D+01
15 15  8 23  2  0  0.0 -.267544295639D-03 -.204636307899D-11  .000000000000D+00
     .600000000000D+02  .508437500000D+02  .530093509094D-08  .802224603258D+00
     .286102294922D-05  .733497436158D-02  .868737697601D-05  .515370187759D+04
     .720000000000D+04  .372529029846D-07 -.151653268830D+01  .614672899246D-07
     .932305353666D+00  .193687500000D+03  .395245840673D+00 -.845463788389D-08
    -.274654297597D-09  .100000000000D+01  .185900000000D+04  .000000000000D+00
     .240000000000D+01  .000000000000D+00 -.107102096081D-07  .600000000000D+02
     .600000000000D+01  .400000000000D+01
16 15  8 23  2  0  0.0 -.945162028074D-04  .409272615798D-11  .000000000000D+00
     .920000000000D+02 -.451250000000D+02  .377622872366D-08  .246826195432D+01
    -.241398811340D-05  .808693154249D-02  .576488673687D-05  .515361104584D+04
     .720000000000D+04 -.447034835815D-07  .694830795200D+00 -.149011611938D-07
     .990580430565D+00  .287343750000D+03  .324905051405D+00 -.783639784600D-08
    -.188222125921D-09  .100000000000D+01  .185900000000D+04  .000000000000D+00
     .240000000000D+01  .000000000000D+00 -.102445483208D-07  .920000000000D+02
     .600000000000D+01  .400000000000D+01
17 15  8 23  2  0  0.0 -.185127835721D-03 -.136424205266D-11  .000000000000D+00
     .270000000000D+02 -.349062500000D+02  .408802742561D-08  .147569366971D+01
    -.182352960110D-05  .103188577341D-01  .844895839691D-05  .515356359100D+04
     .720000000000D+04 -.236555933952D-06  .172042637919D+01 -.119209289551D-06
     .973167881354D+00  .222156250000D+03 -.201026865480D+01 -.798354683249D-08
     .211794536378D-09  .100000000000D+01  .185900000000D+04  .000000000000D+00
     .240000000000D+01  .000000000000D+00 -.107102096081D-07  .270000000000D+02
     .600000000000D+01  .400000000000D+01
19 15  8 23  2  0  0.0 -.518796034157D-03 -.682121026330D-12  .000000000000D+00
     .420000000000D+02 -.400625000000D+02  .419338895720D-08  .479170842498D+00
    -.199303030968D-05  .113477879204D-01  .819191336632D-05  .515512718010D+04
     .720000000000D+04 -.316649675369D-07  .176977598954D+01  .225380063057D-06
     .970252766922D+00  .228343750000D+03  .640454479831D+00 -.798711840983D-08
     .181436128972D-09  .100000000000D+01  .185900000000D+04  .000000000000D+00
     .240000000000D+01  .000000000000D+00 -.149011611938D-07  .420000000000D+02
     .600000000000D+01  .400000000000D+01
20 15  8 23  2  0  0.0  .349191483110D-03  .318323145621D-11  .000000000000D+00
     .790000000000D+02 -.115937500000D+02  .563416325694D-08  .860794636626D+00
    -.504776835442D-06  .483171478845D-02  .802986323833D-05  .515362750435D+04
     .720000000000D+04 -.465661287308D-07 -.258868993090D+01  .894069671631D-07
     .926392964397D+00  .208125000000D+03  .120211694239D+01 -.859714381983D-08
    -.139648674071D-09  .100000000000D+01  .185900000000D+04  .000000000000D+00
     .240000000000D+01  .000000000000D+00 -.838190317154D-08  .790000000000D+02
     .600000000000D+01  .400000000000D+01
21 15  8 23  2  0  0.0 -.474090222269D-03 -.295585778076D-11  .000000000000D+00
     .710000000000D+02 -.108750000000D+02  .513985695282D-08 -.223819960385D+01
    -.676140189171D-06  .225264214678D-01  .646337866783D-05  .515376930046D+04
     .720000000000D+04  .309199094772D-06  .270407028420D+01  .745058059692D-08
     .934755639044D+00  .230843750000D+03 -.188476092633D+01 -.801426239763D-08
     .504663878419D-09  .100000000000D+01  .185900000000D+04  .000000000000D+00
     .340000000000D+01  .000000000000D+00 -.116415321827D-07  .710000000000D+02
     .600000000000D+01  .400000000000D+01
